[{"OBJECT_NAME":"TEVEL2-6","OBJECT_ID":"2025-052F","EPOCH":"2026-03-09T15:35:24.554400","MEAN_MOTION":15.30760889,"ECCENTRICITY":0.0004769,"INCLINATION":97.4016,"RA_OF_ASC_NODE":325.0381,"ARG_OF_PERICENTER":95.6604,"MEAN_ANOMALY":264.5181,"EPHEMERIS_TYPE":0,"CLASSIFICATION_TYPE":"U","NORAD_CAT_ID":63215,"ELEMENT_SET_NO":999,"REV_AT_EPOCH":5486,"BSTAR":0.00070909,"MEAN_MOTION_DOT":0.00021046,"MEAN_MOTION_DDOT":0},{"OBJECT_NAME":"STARLINK-36033","OBJECT_ID":"2025-283R","EPOCH":"2026-03-09T06:20:06.712512","MEAN_MOTION":15.30186705,"ECCENTRICITY":0.00011065,"INCLINATION":53.1627,"RA_OF_ASC_NODE":26.5248,"ARG_OF_PERICENTER":106.8453,"MEAN_ANOMALY":253.267,"EPHEMERIS_TYPE":0,"CLASSIFICATION_TYPE":"U","NORAD_CAT_ID":66893,"ELEMENT_SET_NO":999,"REV_AT_EPOCH":1577,"BSTAR":0.00064067578,"MEAN_MOTION_DOT":0.00018656,"MEAN_MOTION_DDOT":0}]
