TEVEL2-6                
1 63215U 25052F   26068.64958975  .00021046  00000+0  70909-3 0  9996
2 63215  97.4016 325.0381 0004769  95.6604 264.5181 15.30760889 54861
STARLINK-36033          
1 66893U 25283R   26068.26396658  .00018656  00000+0  64068-3 0  9991
2 66893  53.1627  26.5248 0001106 106.8453 253.2670 15.30186705 15771
